     2.10           G: GLONASS NAV DATA                     RINEX VERSION / TYPE
teqc  2015Jun23                         20220121 01:25:46UTCPGM / RUN BY / DATE
Linux 2.4.21-27.ELsmp|Opteron|gcc -static|Linux x86_64|=+   COMMENT
  2021    12    28    9.313225746155D-10                    CORR TO SYSTEM TIME
                                                            END OF HEADER
14 21 12 29 14 45  0.0 7.262825965881D-05 0.000000000000D+00 5.220000000000D+04
    3.536688964844D+03-6.972513198853D-01-0.000000000000D+00 0.000000000000D+00
    1.749144970703D+04 2.395882606506D+00 3.725290298462D-09-7.000000000000D+00
    1.823062011719D+04-2.165163993835D+00-0.000000000000D+00 0.000000000000D+00
24 21 12 29 14 45  0.0 7.332768291235D-05 1.818989403546D-12 5.226000000000D+04
    3.352426757812D+03-1.548158645630D+00-0.000000000000D+00 0.000000000000D+00
    1.730770263672D+04-1.995709419250D+00 3.725290298462D-09 2.000000000000D+00
    1.846560937500D+04 2.152843475342D+00-0.000000000000D+00 0.000000000000D+00
17 21 12 29 15 15  0.0 4.878779873252D-04 3.637978807092D-12 5.400000000000D+04
    1.450937011719D+04-8.554220199585D-01-0.000000000000D+00 0.000000000000D+00
    1.864788183594D+04-1.030650138855D+00 3.725290298462D-09 4.000000000000D+00
    9.678966796875D+03 3.269266128540D+00 0.000000000000D+00 0.000000000000D+00
12 21 12 29 15 15  0.0 2.905307337642D-04 2.728484105319D-12 5.400000000000D+04
   -1.151810400391D+04 5.676851272583D-01 9.313225746155D-10 0.000000000000D+00
    1.321309521484D+04-2.477256774902D+00 0.000000000000D+00-1.000000000000D+00
   -1.852045849609D+04-2.115435600281D+00 2.793967723846D-09 0.000000000000D+00
 1 21 12 29 15 15  0.0 7.326714694500D-06-0.000000000000D+00 5.400000000000D+04
   -2.386595312500D+04-3.863334655762D-03 1.862645149231D-09 0.000000000000D+00
    8.983962402344D+03 1.574258804321D-01 9.313225746155D-10 1.000000000000D+00
   -4.265600585938D+02 3.562617301941D+00 9.313225746155D-10 0.000000000000D+00
 2 21 12 29 15 15  0.0 5.048140883446D-04 9.094947017729D-13 5.400000000000D+04
   -1.203999609375D+04-2.343879699707D+00 9.313225746155D-10 0.000000000000D+00
    1.310165185547D+04 8.988943099976D-01 0.000000000000D+00-4.000000000000D+00
   -1.827074023438D+04 2.178462982178D+00 2.793967723846D-09 0.000000000000D+00
13 21 12 29 15 15  0.0-1.632515341043D-05-0.000000000000D+00 5.400000000000D+04
   -6.490519042969D+03 2.548561096191D-01 9.313225746155D-10 0.000000000000D+00
    2.428439111328D+04-5.604209899902D-01 2.793967723846D-09-2.000000000000D+00
   -4.378320800781D+03-3.500253677368D+00 2.793967723846D-09 0.000000000000D+00
14 21 12 29 15 15  0.0 7.262919098139D-05 0.000000000000D+00 5.400000000000D+04
    2.713816406250D+03-2.359724044800D-01 0.000000000000D+00 0.000000000000D+00
    2.135925195312D+04 1.859642028809D+00 4.656612873077D-09-7.000000000000D+00
    1.367909667969D+04-2.859295845032D+00 9.313225746155D-10 0.000000000000D+00
24 21 12 29 15 15  0.0 7.333140820265D-05 1.818989403546D-12 5.400000000000D+04
    1.581250000000D+01-2.141926765442D+00 0.000000000000D+00 0.000000000000D+00
    1.364421093750D+04-2.028235435486D+00 3.725290298462D-09 2.000000000000D+00
    2.157886083984D+04 1.283951759338D+00-0.000000000000D+00 0.000000000000D+00
17 21 12 29 15 45  0.0 4.878854379058D-04 3.637978807092D-12 5.580000000000D+04
    1.228091503906D+04-1.619814872742D+00 0.000000000000D+00 0.000000000000D+00
    1.651255517578D+04-1.296415328979D+00 3.725290298462D-09 4.000000000000D+00
    1.511473242188D+04 2.731375694275D+00 0.000000000000D+00 0.000000000000D+00
12 21 12 29 15 45  0.0 2.905353903770D-04 2.728484105319D-12 5.580000000000D+04
   -1.078336474609D+04 2.238912582397D-01 9.313225746155D-10 0.000000000000D+00
    8.290825195312D+03-2.949181556702D+00-9.313225746155D-10-1.000000000000D+00
   -2.156224511719D+04-1.242264747620D+00 2.793967723846D-09 0.000000000000D+00
 1 21 12 29 15 45  0.0 7.326714694500D-06-0.000000000000D+00 5.580000000000D+04
   -2.314405322266D+04 7.839698791504D-01 1.862645149231D-09 0.000000000000D+00
    8.930040039062D+03-2.516202926636D-01 9.313225746155D-10 1.000000000000D+00
    5.919746582031D+03 3.443015098572D+00 0.000000000000D+00 0.000000000000D+00
 2 21 12 29 15 45  0.0 5.048159509897D-04 9.094947017729D-13 5.580000000000D+04
   -1.563330273438D+04-1.626233100891D+00 1.862645149231D-09 0.000000000000D+00
    1.480592822266D+04 9.538230895996D-01 0.000000000000D+00-4.000000000000D+00
   -1.369385302734D+04 2.873781204224D+00 2.793967723846D-09 0.000000000000D+00
13 21 12 29 15 45  0.0-1.632608473301D-05-0.000000000000D+00 5.580000000000D+04
   -6.041338867188D+03 2.041149139404D-01 9.313225746155D-10 0.000000000000D+00
    2.249408251953D+04-1.416440963745D+00 1.862645149231D-09-2.000000000000D+00
   -1.042832958984D+04-3.178397178650D+00 2.793967723846D-09 0.000000000000D+00
14 21 12 29 15 45  0.0 7.263012230396D-05 0.000000000000D+00 5.580000000000D+04
    2.593206054688D+03 6.968879699707D-02 9.313225746155D-10 0.000000000000D+00
    2.405688574219D+04 1.109086990356D+00 3.725290298462D-09-7.000000000000D+00
    8.070008300781D+03-3.332577705383D+00 9.313225746155D-10 0.000000000000D+00
24 21 12 29 15 45  0.0 7.333513349295D-05 1.818989403546D-12 5.580000000000D+04
   -4.265087890625D+03-2.580717086792D+00 9.313225746155D-10 0.000000000000D+00
    1.016221728516D+04-1.801890373230D+00 2.793967723846D-09 2.000000000000D+00
    2.302831591797D+04 3.161163330078D-01-9.313225746155D-10 0.000000000000D+00
 3 21 12 29 15 45  0.0 4.899967461824D-05 0.000000000000D+00 5.622000000000D+04
    1.180583984375D+03-2.783739089966D+00 0.000000000000D+00 0.000000000000D+00
    1.145719873047D+04 1.413005828857D+00-0.000000000000D+00 5.000000000000D+00
   -2.272670458984D+04 5.612335205078D-01 2.793967723846D-09 0.000000000000D+00
15 21 12 29 15 45  0.0 9.927526116371D-05-0.000000000000D+00 5.721000000000D+04
    9.336855957031D+03-1.040000915527D-01 0.000000000000D+00 0.000000000000D+00
    1.134910058594D+04 2.851201057434D+00 3.725290298462D-09 0.000000000000D+00
    2.086669287109D+04-1.504801750183D+00-0.000000000000D+00 0.000000000000D+00
17 21 12 29 16 15  0.0 4.878919571638D-04 3.637978807092D-12 5.760000000000D+04
    8.716275390625D+03-2.320679664612D+00 9.313225746155D-10 0.000000000000D+00
    1.414476318359D+04-1.290456771851D+00 3.725290298462D-09 4.000000000000D+00
    1.938523779297D+04 1.982891082764D+00-0.000000000000D+00 0.000000000000D+00
 3 21 12 29 16 15  0.0 4.900060594082D-05 0.000000000000D+00 5.760000000000D+04
   -3.459825683594D+03-2.335404396057D+00 9.313225746155D-10 0.000000000000D+00
    1.425196484375D+04 1.656968116760D+00-0.000000000000D+00 5.000000000000D+00
   -2.084849804688D+04 1.511872291565D+00 2.793967723846D-09 0.000000000000D+00
 1 21 12 29 16 15  0.0 7.325783371925D-06-0.000000000000D+00 5.760000000000D+04
   -2.115102197266D+04 1.393909454346D+00 1.862645149231D-09 0.000000000000D+00
    7.975897949219D+03-8.299398422241D-01 0.000000000000D+00 1.000000000000D+00
    1.180804052734D+04 3.057023048401D+00-9.313225746155D-10 0.000000000000D+00
 2 21 12 29 16 15  0.0 5.048187449574D-04 9.094947017729D-13 5.760000000000D+04
   -1.784740234375D+04-8.304862976074D-01 1.862645149231D-09 0.000000000000D+00
    1.638053955078D+04 7.521495819092D-01 0.000000000000D+00-4.000000000000D+00
   -8.059172851562D+03 3.346280097961D+00 1.862645149231D-09 0.000000000000D+00
13 21 12 29 16 15  0.0-1.632701605558D-05-0.000000000000D+00 5.760000000000D+04
   -5.889431640625D+03-6.811809539795D-02 9.313225746155D-10 0.000000000000D+00
    1.926290820312D+04-2.143605232239D+00 0.000000000000D+00-2.000000000000D+00
   -1.567302929688D+04-2.611305236816D+00 2.793967723846D-09 0.000000000000D+00
14 21 12 29 16 15  0.0 7.263105362654D-05 0.000000000000D+00 5.760000000000D+04
    2.832936523438D+03 1.571359634399D-01 1.862645149231D-09 0.000000000000D+00
    2.527988525391D+04 2.390289306641D-01 3.725290298462D-09-7.000000000000D+00
    1.836799316406D+03-3.548227310181D+00 1.862645149231D-09 0.000000000000D+00
15 21 12 29 16 15  0.0 9.927526116371D-05-0.000000000000D+00 5.760000000000D+04
    9.507842773438D+03 2.715930938721D-01 9.313225746155D-10 0.000000000000D+00
    1.608086328125D+04 2.363262176514D+00 3.725290298462D-09 0.000000000000D+00
    1.738771386719D+04-2.335710525513D+00 0.000000000000D+00 0.000000000000D+00
15 21 12 29 16 45  0.0 9.927432984114D-05-0.000000000000D+00 5.940000000000D+04
    1.020933007812D+04 4.728298187256D-01 1.862645149231D-09 0.000000000000D+00
    1.972456201172D+04 1.655963897705D+00 3.725290298462D-09 0.000000000000D+00
    1.256645800781D+04-2.986545562744D+00 9.313225746155D-10 0.000000000000D+00
 3 21 12 29 16 45  0.0 4.900153726339D-05 0.000000000000D+00 5.940000000000D+04
   -7.121804687500D+03-1.712779998779D+00 9.313225746155D-10 0.000000000000D+00
    1.727672851562D+04 1.659683227539D+00-0.000000000000D+00 5.000000000000D+00
   -1.735514501953D+04 2.344198226929D+00 2.793967723846D-09 0.000000000000D+00
 2 21 12 29 16 45  0.0 5.048215389252D-04 9.094947017729D-13 5.940000000000D+04
   -1.864549462891D+04-7.179450988770D-02 1.862645149231D-09 0.000000000000D+00
    1.736294091797D+04 3.007631301880D-01 0.000000000000D+00-4.000000000000D+00
   -1.802788085938D+03 3.560214996338D+00 9.313225746155D-10 0.000000000000D+00
13 21 12 29 16 45  0.0-1.632794737816D-05-0.000000000000D+00 5.940000000000D+04
   -6.382310058594D+03-4.989118576050D-01 9.313225746155D-10 0.000000000000D+00
    1.491149218750D+04-2.647950172424D+00-0.000000000000D+00-2.000000000000D+00
   -1.970793847656D+04-1.842912673950D+00 2.793967723846D-09 0.000000000000D+00
14 21 12 29 16 45  0.0 7.263198494911D-05 0.000000000000D+00 5.940000000000D+04
    3.013923828125D+03 4.478454589844D-03 1.862645149231D-09 0.000000000000D+00
    2.491367871094D+04-6.372041702271D-01 2.793967723846D-09-7.000000000000D+00
   -4.538485351562D+03-3.489389419556D+00 2.793967723846D-09 0.000000000000D+00
